[{"OBJECT_NAME":"GAOFEN-9 05","OBJECT_ID":"2020-058A","EPOCH":"2026-03-10T00:01:50.876256","MEAN_MOTION":15.30293976,"ECCENTRICITY":0.0010522,"INCLINATION":97.2228,"RA_OF_ASC_NODE":111.963,"ARG_OF_PERICENTER":91.0204,"MEAN_ANOMALY":269.2242,"EPHEMERIS_TYPE":0,"CLASSIFICATION_TYPE":"U","NORAD_CAT_ID":46232,"ELEMENT_SET_NO":999,"REV_AT_EPOCH":30843,"BSTAR":0.00025120304,"MEAN_MOTION_DOT":7.299e-5,"MEAN_MOTION_DDOT":0},{"OBJECT_NAME":"STARLINK-32249","OBJECT_ID":"2024-144V","EPOCH":"2026-03-09T16:25:18.639264","MEAN_MOTION":15.30174225,"ECCENTRICITY":0.00012845,"INCLINATION":53.1603,"RA_OF_ASC_NODE":216.7732,"ARG_OF_PERICENTER":52.5165,"MEAN_ANOMALY":307.5953,"EPHEMERIS_TYPE":0,"CLASSIFICATION_TYPE":"U","NORAD_CAT_ID":60444,"ELEMENT_SET_NO":999,"REV_AT_EPOCH":8935,"BSTAR":-5.7154002e-5,"MEAN_MOTION_DOT":-2.05e-5,"MEAN_MOTION_DDOT":0}]
